ONEWEB-0520             
1 54138U 22138AB  25112.19500142  .00000035  00000+0  54145-4 0  9990
2 54138  87.9245  28.6336 0001754  71.9956 288.1368 13.19723633122166
ONEWEB-0521             
1 54139U 22138AC  25112.22818129  .00000042  00000+0  72266-4 0  9994
2 54139  87.9271  28.6106 0002219  84.5359 275.6027 13.19724844122141
ONEWEB-0522             
1 54140U 22138AD  25111.75275293  .00000040  00000+0  67185-4 0  9994
2 54140  87.9252  28.7094 0001786  80.9743 279.1591 13.19726355121226
ONEWEB-0523             
1 54141U 22138AE  25111.21667288 -.00000007  00000+0 -48462-4 0  9997
2 54141  87.9325 358.4541 0002276 109.0648 251.0732 13.20770499123600
ONEWEB-0524             
1 54142U 22138AF  25112.19046324  .00000089  00000+0  18647-3 0  9997
2 54142  87.9315 358.2646 0001358 117.5377 242.5894 13.20771165124603
ONEWEB-0525             
1 54143U 22138AG  25112.22653839  .00000030  00000+0  43150-4 0  9991
2 54143  87.9259  28.6321 0001874  71.1394 288.9942 13.19732841122170
ONEWEB-0526             
1 54144U 22138AH  25111.72904865  .00000135  00000+0  30373-3 0  9992
2 54144  87.9259  28.7202 0001899  75.5218 284.6125 13.19724551121219
ONEWEB-0529             
1 54145U 22138AJ  25111.73220931  .00000051  00000+0  94320-4 0  9999
2 54145  87.9263  28.7579 0001796  72.2908 287.8420 13.19723769121233
